[Satellite]
VERSION=1.1
NAME=METEOR-M 2
NICKNAME=METEOR-M 2
TLE1=1 40069U 14037A   20158.28745550 -.00000030  00000-0  56577-5 0  9995
TLE2=2 40069  98.5028 196.2449 0005092 325.3841  99.9400 14.20672857306620
STATUS=0
